[{"OBJECT_NAME":"GEISAT PRECURSOR","OBJECT_ID":"2023-084C","EPOCH":"2026-03-09T22:20:25.833120","MEAN_MOTION":15.33054389,"ECCENTRICITY":0.00051675,"INCLINATION":97.6055,"RA_OF_ASC_NODE":206.8263,"ARG_OF_PERICENTER":345.1842,"MEAN_ANOMALY":14.9247,"EPHEMERIS_TYPE":0,"CLASSIFICATION_TYPE":"U","NORAD_CAT_ID":56934,"ELEMENT_SET_NO":999,"REV_AT_EPOCH":15231,"BSTAR":0.00033857167,"MEAN_MOTION_DOT":0.00010736,"MEAN_MOTION_DDOT":0},{"OBJECT_NAME":"STARLINK-32113","OBJECT_ID":"2024-132E","EPOCH":"2026-03-09T23:03:41.339232","MEAN_MOTION":15.30196438,"ECCENTRICITY":0.00013116,"INCLINATION":53.1608,"RA_OF_ASC_NODE":51.0475,"ARG_OF_PERICENTER":87.6102,"MEAN_ANOMALY":272.5049,"EPHEMERIS_TYPE":0,"CLASSIFICATION_TYPE":"U","NORAD_CAT_ID":60282,"ELEMENT_SET_NO":999,"REV_AT_EPOCH":9160,"BSTAR":3.4432901e-5,"MEAN_MOTION_DOT":6.61e-6,"MEAN_MOTION_DDOT":0}]
